CCSDS_OMM_VERS = 2.0
CREATION_DATE  = 
ORIGINATOR     = 

OBJECT_NAME    = STARLINK-36113
OBJECT_ID      = 2025-288Z
CENTER_NAME    = EARTH
REF_FRAME      = TEME
TIME_SYSTEM    = UTC
MEAN_ELEMENT_THEORY = SGP/SGP4

EPOCH          = 2025-12-18T06:00:02.999808
MEAN_MOTION    = 15.87436044
ECCENTRICITY   = .00015704
INCLINATION    = 43.0015
RA_OF_ASC_NODE = 133.3476
ARG_OF_PERICENTER = 273.3491
MEAN_ANOMALY   = 236.0072

EPHEMERIS_TYPE = 0
CLASSIFICATION_TYPE = U
NORAD_CAT_ID   = 66982
ELEMENT_SET_NO = 999
REV_AT_EPOCH   = 271
BSTAR          = -.61892737E-2
MEAN_MOTION_DOT = -.1497828E-1
MEAN_MOTION_DDOT = 0

CCSDS_OMM_VERS = 2.0
CREATION_DATE  = 
ORIGINATOR     = 

OBJECT_NAME    = STARLINK-36145
OBJECT_ID      = 2025-288AA
CENTER_NAME    = EARTH
REF_FRAME      = TEME
TIME_SYSTEM    = UTC
MEAN_ELEMENT_THEORY = SGP/SGP4

EPOCH          = 2025-12-18T06:00:02.999808
MEAN_MOTION    = 15.87472647
ECCENTRICITY   = .00015594
INCLINATION    = 43.0015
RA_OF_ASC_NODE = 133.3364
ARG_OF_PERICENTER = 270.9315
MEAN_ANOMALY   = 242.8879

EPHEMERIS_TYPE = 0
CLASSIFICATION_TYPE = U
NORAD_CAT_ID   = 66983
ELEMENT_SET_NO = 999
REV_AT_EPOCH   = 271
BSTAR          = -.62677627E-2
MEAN_MOTION_DOT = -.1517048E-1
MEAN_MOTION_DDOT = 0

CCSDS_OMM_VERS = 2.0
CREATION_DATE  = 
ORIGINATOR     = 

OBJECT_NAME    = STARLINK-35591
OBJECT_ID      = 2025-288AB
CENTER_NAME    = EARTH
REF_FRAME      = TEME
TIME_SYSTEM    = UTC
MEAN_ELEMENT_THEORY = SGP/SGP4

EPOCH          = 2025-12-18T06:00:02.999808
MEAN_MOTION    = 15.87452139
ECCENTRICITY   = .00015556
INCLINATION    = 43.0015
RA_OF_ASC_NODE = 133.3415
ARG_OF_PERICENTER = 268.2609
MEAN_ANOMALY   = 243.3460

EPHEMERIS_TYPE = 0
CLASSIFICATION_TYPE = U
NORAD_CAT_ID   = 66984
ELEMENT_SET_NO = 999
REV_AT_EPOCH   = 271
BSTAR          = -.62229533E-2
MEAN_MOTION_DOT = -.1506094E-1
MEAN_MOTION_DDOT = 0

CCSDS_OMM_VERS = 2.0
CREATION_DATE  = 
ORIGINATOR     = 

OBJECT_NAME    = STARLINK-36103
OBJECT_ID      = 2025-288AC
CENTER_NAME    = EARTH
REF_FRAME      = TEME
TIME_SYSTEM    = UTC
MEAN_ELEMENT_THEORY = SGP/SGP4

EPOCH          = 2025-12-18T06:00:02.999808
MEAN_MOTION    = 15.87484919
ECCENTRICITY   = .00014872
INCLINATION    = 43.0015
RA_OF_ASC_NODE = 133.3303
ARG_OF_PERICENTER = 272.8352
MEAN_ANOMALY   = 243.3450

EPHEMERIS_TYPE = 0
CLASSIFICATION_TYPE = U
NORAD_CAT_ID   = 66985
ELEMENT_SET_NO = 999
REV_AT_EPOCH   = 271
BSTAR          = -.62842243E-2
MEAN_MOTION_DOT = -.1521332E-1
MEAN_MOTION_DDOT = 0

CCSDS_OMM_VERS = 2.0
CREATION_DATE  = 
ORIGINATOR     = 

OBJECT_NAME    = STARLINK-36135
OBJECT_ID      = 2025-288AD
CENTER_NAME    = EARTH
REF_FRAME      = TEME
TIME_SYSTEM    = UTC
MEAN_ELEMENT_THEORY = SGP/SGP4

EPOCH          = 2025-12-18T06:00:02.999808
MEAN_MOTION    = 15.87497566
ECCENTRICITY   = .00015306
INCLINATION    = 43.0012
RA_OF_ASC_NODE = 133.3237
ARG_OF_PERICENTER = 270.9726
MEAN_ANOMALY   = 247.5733

EPHEMERIS_TYPE = 0
CLASSIFICATION_TYPE = U
NORAD_CAT_ID   = 66986
ELEMENT_SET_NO = 999
REV_AT_EPOCH   = 271
BSTAR          = -.63138568E-2
MEAN_MOTION_DOT = -.1528548E-1
MEAN_MOTION_DDOT = 0

CCSDS_OMM_VERS = 2.0
CREATION_DATE  = 
ORIGINATOR     = 

OBJECT_NAME    = STARLINK-36147
OBJECT_ID      = 2025-288AE
CENTER_NAME    = EARTH
REF_FRAME      = TEME
TIME_SYSTEM    = UTC
MEAN_ELEMENT_THEORY = SGP/SGP4

EPOCH          = 2025-12-18T06:00:02.999808
MEAN_MOTION    = 15.87516993
ECCENTRICITY   = .00014978
INCLINATION    = 43.0018
RA_OF_ASC_NODE = 133.3188
ARG_OF_PERICENTER = 273.5094
MEAN_ANOMALY   = 247.2103

EPHEMERIS_TYPE = 0
CLASSIFICATION_TYPE = U
NORAD_CAT_ID   = 66987
ELEMENT_SET_NO = 999
REV_AT_EPOCH   = 271
BSTAR          = -.63331704E-2
MEAN_MOTION_DOT = -.1533959E-1
MEAN_MOTION_DDOT = 0

CCSDS_OMM_VERS = 2.0
CREATION_DATE  = 
ORIGINATOR     = 

OBJECT_NAME    = YAOGAN-47
OBJECT_ID      = 2025-289A
CENTER_NAME    = EARTH
REF_FRAME      = TEME
TIME_SYSTEM    = UTC
MEAN_ELEMENT_THEORY = SGP/SGP4

EPOCH          = 2025-12-15T02:32:19.481856
MEAN_MOTION    = 15.23184629
ECCENTRICITY   = .0000787
INCLINATION    = 97.5271
RA_OF_ASC_NODE = 54.2297
ARG_OF_PERICENTER = 67.3408
MEAN_ANOMALY   = 292.7912

EPHEMERIS_TYPE = 0
CLASSIFICATION_TYPE = U
NORAD_CAT_ID   = 66988
ELEMENT_SET_NO = 999
REV_AT_EPOCH   = 90
BSTAR          = .11849353E-3
MEAN_MOTION_DOT = .2729E-4
MEAN_MOTION_DDOT = 0

CCSDS_OMM_VERS = 2.0
CREATION_DATE  = 
ORIGINATOR     = 

OBJECT_NAME    = CZ-4B R/B
OBJECT_ID      = 2025-289B
CENTER_NAME    = EARTH
REF_FRAME      = TEME
TIME_SYSTEM    = UTC
MEAN_ELEMENT_THEORY = SGP/SGP4

EPOCH          = 2025-12-18T06:18:50.459328
MEAN_MOTION    = 15.68563917
ECCENTRICITY   = .01448012
INCLINATION    = 97.5259
RA_OF_ASC_NODE = 58.0084
ARG_OF_PERICENTER = 342.0378
MEAN_ANOMALY   = 17.5793

EPHEMERIS_TYPE = 0
CLASSIFICATION_TYPE = U
NORAD_CAT_ID   = 66989
ELEMENT_SET_NO = 999
REV_AT_EPOCH   = 143
BSTAR          = .57944105E-3
MEAN_MOTION_DOT = .119503E-2
MEAN_MOTION_DDOT = .632141E-5

CCSDS_OMM_VERS = 2.0
CREATION_DATE  = 
ORIGINATOR     = 

OBJECT_NAME    = TJS-22
OBJECT_ID      = 2025-290A
CENTER_NAME    = EARTH
REF_FRAME      = TEME
TIME_SYSTEM    = UTC
MEAN_ELEMENT_THEORY = SGP/SGP4

EPOCH          = 2025-12-10T07:11:32.845344
MEAN_MOTION    = 2.15443148
ECCENTRICITY   = .6664534
INCLINATION    = 20.1261
RA_OF_ASC_NODE = 301.1464
ARG_OF_PERICENTER = 180.6877
MEAN_ANOMALY   = 177.6237

EPHEMERIS_TYPE = 0
CLASSIFICATION_TYPE = U
NORAD_CAT_ID   = 66990
ELEMENT_SET_NO = 999
REV_AT_EPOCH   = 3
BSTAR          = .79788243E-1
MEAN_MOTION_DOT = -.38E-6
MEAN_MOTION_DDOT = 0

CCSDS_OMM_VERS = 2.0
CREATION_DATE  = 
ORIGINATOR     = 

OBJECT_NAME    = CZ-3B R/B
OBJECT_ID      = 2025-290B
CENTER_NAME    = EARTH
REF_FRAME      = TEME
TIME_SYSTEM    = UTC
MEAN_ELEMENT_THEORY = SGP/SGP4

EPOCH          = 2025-12-15T17:23:33.043200
MEAN_MOTION    = 2.38388611
ECCENTRICITY   = .7240884
INCLINATION    = 28.4636
RA_OF_ASC_NODE = 300.4666
ARG_OF_PERICENTER = 182.7002
MEAN_ANOMALY   = 168.6250

EPHEMERIS_TYPE = 0
CLASSIFICATION_TYPE = U
NORAD_CAT_ID   = 66991
ELEMENT_SET_NO = 999
REV_AT_EPOCH   = 16
BSTAR          = .75879E-3
MEAN_MOTION_DOT = .57911E-3
MEAN_MOTION_DDOT = -.20514E-6

CCSDS_OMM_VERS = 2.0
CREATION_DATE  = 
ORIGINATOR     = 

OBJECT_NAME    = 2025-292A
OBJECT_ID      = 2025-292A
CENTER_NAME    = EARTH
REF_FRAME      = TEME
TIME_SYSTEM    = UTC
MEAN_ELEMENT_THEORY = SGP/SGP4

EPOCH          = 2025-12-18T06:15:15.600672
MEAN_MOTION    = 15.04534968
ECCENTRICITY   = .00138255
INCLINATION    = 97.6532
RA_OF_ASC_NODE = 64.7586
ARG_OF_PERICENTER = 251.9773
MEAN_ANOMALY   = 107.9947

EPHEMERIS_TYPE = 0
CLASSIFICATION_TYPE = U
NORAD_CAT_ID   = 66993
ELEMENT_SET_NO = 999
REV_AT_EPOCH   = 122
BSTAR          = .25365056E-3
MEAN_MOTION_DOT = .35E-4
MEAN_MOTION_DDOT = 0

CCSDS_OMM_VERS = 2.0
CREATION_DATE  = 
ORIGINATOR     = 

OBJECT_NAME    = 2025-292B
OBJECT_ID      = 2025-292B
CENTER_NAME    = EARTH
REF_FRAME      = TEME
TIME_SYSTEM    = UTC
MEAN_ELEMENT_THEORY = SGP/SGP4

EPOCH          = 2025-12-18T06:14:54.694464
MEAN_MOTION    = 15.04574928
ECCENTRICITY   = .00135961
INCLINATION    = 97.6541
RA_OF_ASC_NODE = 64.7598
ARG_OF_PERICENTER = 252.3152
MEAN_ANOMALY   = 107.6590

EPHEMERIS_TYPE = 0
CLASSIFICATION_TYPE = U
NORAD_CAT_ID   = 66994
ELEMENT_SET_NO = 999
REV_AT_EPOCH   = 122
BSTAR          = .29846685E-3
MEAN_MOTION_DOT = .4133E-4
MEAN_MOTION_DDOT = 0

