STARLINK-36113          
1 66982U 25288Z   25352.25003472 -.01497828  00000+0 -61893-2 0  9995
2 66982  43.0015 133.3476 0001570 273.3491 236.0072 15.87436044  2717
STARLINK-36145          
1 66983U 25288AA  25352.25003472 -.01517048  00000+0 -62678-2 0  9995
2 66983  43.0015 133.3364 0001559 270.9315 242.8879 15.87472647  2718
STARLINK-35591          
1 66984U 25288AB  25352.25003472 -.01506094  00000+0 -62230-2 0  9999
2 66984  43.0015 133.3415 0001555 268.2609 243.3460 15.87452139  2714
STARLINK-36103          
1 66985U 25288AC  25352.25003472 -.01521332  00000+0 -62842-2 0  9991
2 66985  43.0015 133.3303 0001487 272.8352 243.3450 15.87484919  2711
STARLINK-36135          
1 66986U 25288AD  25352.25003472 -.01528548  00000+0 -63139-2 0  9998
2 66986  43.0012 133.3237 0001530 270.9726 247.5733 15.87497566  2710
STARLINK-36147          
1 66987U 25288AE  25352.25003472 -.01533959  00000+0 -63332-2 0  9996
2 66987  43.0018 133.3188 0001497 273.5094 247.2103 15.87516993  2715
YAOGAN-47               
1 66988U 25289A   25349.10578104  .00002729  00000+0  11849-3 0  9997
2 66988  97.5271  54.2297 0000787  67.3408 292.7912 15.23184629   901
CZ-4B R/B               
1 66989U 25289B   25352.26308402  .00119503  63214-5  57944-3 0  9998
2 66989  97.5259  58.0084 0144801 342.0378  17.5793 15.68563917  1438
TJS-22                  
1 66990U 25290A   25344.29968571 -.00000038  00000+0  79788-1 0  9994
2 66990  20.1261 301.1464 6664534 180.6877 177.6237  2.15443148    32
CZ-3B R/B               
1 66991U 25290B   25349.72468800  .00057911 -20514-6  75879-3 0  9998
2 66991  28.4636 300.4666 7240884 182.7002 168.6250  2.38388611   165
2025-292A               
1 66993U 25292A   25352.26059723  .00003500  00000+0  25365-3 0  9995
2 66993  97.6532  64.7586 0013825 251.9773 107.9947 15.04534968  1223
2025-292B               
1 66994U 25292B   25352.26035526  .00004133  00000+0  29847-3 0  9993
2 66994  97.6541  64.7598 0013596 252.3152 107.6590 15.04574928  1229
